0 FENGYUN 1C DEB
1 30700U 99025ARJ 13281.48667976  .00000326  00000-0  16546-3 0  5535
2 30700 098.8606 269.2662 0090033 016.0932 111.8989 14.20633790344045
0 FENGYUN 1C DEB
1 30700U 99025ARJ 13282.67160856  .00000330  00000-0  16746-3 0  5540
2 30700 098.8606 270.4540 0089970 012.6936 051.9587 14.20635697344213
0 FENGYUN 1C DEB
1 30700U 99025ARJ 13283.80913376  .00000353  00000-0  17760-3 0  5552
2 30700 098.8605 271.5944 0089906 009.4263 109.5907 14.20637025344378
0 FENGYUN 1C DEB
1 30700U 99025ARJ 13285.43599157  .00000320  00000-0  16289-3 0  5560
2 30700 098.8605 273.2252 0089818 004.7512 149.8216 14.20638447344601
0 FENGYUN 1C DEB
1 30700U 99025ARJ 13286.76825466  .00000404  00000-0  20040-3 0  5576
2 30700 098.8606 274.5607 0089755 000.9230 123.4185 14.20639211344798
0 FENGYUN 1C DEB
1 30700U 99025ARJ 13287.94715608  .00000551  00000-0  26618-3 0  5584
2 30700 098.8607 275.7423 0089695 357.5260 032.6872 14.20641123344963
0 FENGYUN 1C DEB
1 30700U 99025ARJ 13289.15125266  .00000429  00000-0  21181-3 0  5599
2 30700 098.8609 276.9491 0089605 354.0581 070.8181 14.20642804345136
0 FENGYUN 1C DEB
1 30700U 99025ARJ 13290.43712622  .00000427  00000-0  21092-3 0  5601
2 30700 098.8612 278.2380 0089537 350.3528 167.1915 14.20644028345311
0 FENGYUN 1C DEB
1 30700U 99025ARJ 13291.76889009  .00000459  00000-0  22491-3 0  5612
2 30700 098.8615 279.5729 0089469 346.5100 138.2784 14.20644928345505
0 FENGYUN 1C DEB
1 30700U 99025ARJ 13292.82398417  .00000505  00000-0  24568-3 0  5628
2 30700 098.8617 280.6305 0089412 343.4654 134.3863 14.20645848345651
0 FENGYUN 1C DEB
1 30700U 99025ARJ 13293.93814512  .00000495  00000-0  24102-3 0  5633
2 30700 098.8618 281.7475 0089356 340.2478 072.5866 14.20647463345817
0 FENGYUN 1C DEB
1 30700U 99025ARJ 13295.20759440  .00000523  00000-0  25346-3 0  5647
2 30700 098.8619 283.0201 0089290 336.5855 084.9888 14.20648933345997
